{
    "links": {
        "self": "http://www.neowsapp.com/rest/v1/neo/3772841?api_key=iIulBulltgU6a56xZRHN4H3l9WmuAYTsLGpBGhQ2"
    },
    "id": "3772841",
    "neo_reference_id": "3772841",
    "name": "(2017 FM91)",
    "designation": "2017 FM91",
    "nasa_jpl_url": "http://ssd.jpl.nasa.gov/sbdb.cgi?sstr=3772841",
    "absolute_magnitude_h": 22.9,
    "estimated_diameter": {
        "kilometers": {
            "estimated_diameter_min": 0.0699125232,
            "estimated_diameter_max": 0.1563291544
        },
        "meters": {
            "estimated_diameter_min": 69.9125232246,
            "estimated_diameter_max": 156.3291544087
        },
        "miles": {
            "estimated_diameter_min": 0.0434416145,
            "estimated_diameter_max": 0.097138403
        },
        "feet": {
            "estimated_diameter_min": 229.3718026961,
            "estimated_diameter_max": 512.8909429502
        }
    },
    "is_potentially_hazardous_asteroid": false,
    "close_approach_data": [
        {
            "close_approach_date": "2016-10-01",
            "close_approach_date_full": "2016-Oct-01 18:56",
            "epoch_date_close_approach": 1475348160000,
            "relative_velocity": {
                "kilometers_per_second": "16.9778843393",
                "kilometers_per_hour": "61120.3836214393",
                "miles_per_hour": "37977.8294785549"
            },
            "miss_distance": {
                "astronomical": "0.4747875635",
                "lunar": "184.6923622015",
                "kilometers": "71027208.202089745",
                "miles": "44134260.643918681"
            },
            "orbiting_body": "Earth"
        },
        {
            "close_approach_date": "2017-03-18",
            "close_approach_date_full": "2017-Mar-18 07:05",
            "epoch_date_close_approach": 1489820700000,
            "relative_velocity": {
                "kilometers_per_second": "20.9259349779",
                "kilometers_per_hour": "75333.3659203486",
                "miles_per_hour": "46809.2239520077"
            },
            "miss_distance": {
                "astronomical": "0.0953959258",
                "lunar": "37.1090151362",
                "kilometers": "14271027.306358046",
                "miles": "8867605.1718551948"
            },
            "orbiting_body": "Earth"
        }
    ],
    "orbital_data": {
        "orbit_id": "4",
        "orbit_determination_date": "2017-04-06 08:19:06",
        "first_observation_date": "2017-03-25",
        "last_observation_date": "2017-03-30",
        "data_arc_in_days": 5,
        "observations_used": 40,
        "orbit_uncertainty": "9",
        "minimum_orbit_intersection": ".0827825",
        "jupiter_tisserand_invariant": "4.388",
        "epoch_osculation": "2457838.5",
        "eccentricity": ".3937652047824275",
        "semi_major_axis": "1.450740094688243",
        "inclination": "34.37363128523396",
        "ascending_node_longitude": "359.3652018311658",
        "orbital_period": "638.2382789272556",
        "perihelion_distance": ".8794891242172487",
        "perihelion_argument": "108.1951703495812",
        "aphelion_distance": "2.021991065159237",
        "perihelion_time": "2457776.934282728776",
        "mean_anomaly": "34.72630669362717",
        "mean_motion": ".5640526616565279",
        "equinox": "J2000",
        "orbit_class": {
            "orbit_class_type": "APO",
            "orbit_class_description": "Near-Earth asteroid orbits which cross the Earth’s orbit similar to that of 1862 Apollo",
            "orbit_class_range": "a (semi-major axis) > 1.0 AU; q (perihelion) < 1.017 AU"
        }
    },
    "is_sentry_object": false
}